IRIDIUM 116             
1 43072U 17083C   24343.85758242  .00000072  00000+0  18734-4 0  9997
2 43072  86.3997 194.0873 0001816  89.5439 270.5965 14.34217912364579
IRIDIUM 130             
1 43073U 17083D   24343.82587026 -.00000011  00000+0 -10970-4 0  9994
2 43073  86.4007 194.3209 0001709  82.6591 277.4799 14.34217318364518
IRIDIUM 151             
1 43074U 17083E   24344.14933731  .00000592  00000+0  20435-3 0  9997
2 43074  86.3995 194.0104 0001952  91.0831 269.0588 14.34218441364584
IRIDIUM 134             
1 43075U 17083F   24344.32693453  .00000624  00000+0  21592-3 0  9993
2 43075  86.3999 193.9367 0001871  85.1130 275.0279 14.34217182364578
IRIDIUM 137             
1 43076U 17083G   24344.13031906  .00000649  00000+0  22467-3 0  9991
2 43076  86.3999 194.1000 0001788 101.5649 258.5747 14.34216318364612
IRIDIUM 141             
1 43077U 17083H   24343.56582661  .00000588  00000+0  20303-3 0  9996
2 43077  86.3994 194.1984 0002231  80.6984 279.4464 14.34220690364539
IRIDIUM 153             
1 43078U 17083J   24343.93661408 -.00000047  00000+0 -23807-4 0  9990
2 43078  86.3989 162.5704 0002440  82.6252 277.5221 14.34217171365693
IRIDIUM 131             
1 43079U 17083K   24343.83221345  .00000590  00000+0  20351-3 0  9993
2 43079  86.4001 194.2358 0002125  87.6772 272.4667 14.34215641364506
